[{"OBJECT_NAME":"STARLINK-5878","OBJECT_ID":"2023-037AT","EPOCH":"2026-03-09T23:11:06.774432","MEAN_MOTION":14.98332254,"ECCENTRICITY":0.00025462,"INCLINATION":69.9981,"RA_OF_ASC_NODE":263.7959,"ARG_OF_PERICENTER":271.1445,"MEAN_ANOMALY":88.9423,"EPHEMERIS_TYPE":0,"CLASSIFICATION_TYPE":"U","NORAD_CAT_ID":55955,"ELEMENT_SET_NO":999,"REV_AT_EPOCH":16451,"BSTAR":-8.99554e-7,"MEAN_MOTION_DOT":-1.04e-6,"MEAN_MOTION_DDOT":0},{"OBJECT_NAME":"CZ-6A DEB","OBJECT_ID":"2022-151WD","EPOCH":"2026-03-09T18:15:50.585760","MEAN_MOTION":14.95909888,"ECCENTRICITY":0.00406186,"INCLINATION":98.6454,"RA_OF_ASC_NODE":143.7847,"ARG_OF_PERICENTER":193.5421,"MEAN_ANOMALY":166.4711,"EPHEMERIS_TYPE":0,"CLASSIFICATION_TYPE":"U","NORAD_CAT_ID":55212,"ELEMENT_SET_NO":999,"REV_AT_EPOCH":17107,"BSTAR":0.0046813987,"MEAN_MOTION_DOT":0.00053565,"MEAN_MOTION_DDOT":0}]
